FACSAT-1                
1 43721U 18096C   22207.57581777  .00017247  00000+0  46842-3 0  9998
2 43721  97.3494 287.3841 0011594 271.3050 196.5864 15.37580381203988
CENTAURI-2              
1 43722U 18096D   22207.46695250  .00016663  00000+0  40150-3 0  9996
2 43722  97.3554 289.4792 0010902 266.5602  93.4398 15.41262600204080
INNOSAT-2               
1 43738U 18096V   22207.51214501  .00049905  00000+0  79830-3 0  9997
2 43738  97.3635 297.2565 0011406 252.2940 164.5815 15.52921697204566
SIRION PATHFINDER-2     
1 43759U 18099B   22207.42392051  .00000734  00000+0  69528-4 0  9991
2 43759  97.6190 273.1731 0015107 126.6765 233.5847 14.96480269198877
CORVUS BC4              
1 43767U 18099K   22207.52770017  .00001617  00000+0  14942-3 0  9993
2 43767  97.6144 271.7240 0012810 131.4819 228.7504 14.95876642198819
MOVE-II                 
1 43780U 18099Y   22207.42970442  .00002275  00000+0  19727-3 0  9998
2 43780  97.6233 273.9871 0013620 135.5452 224.6866 14.98001831198892
SPACEBEE-7              
1 43816U 18099BL  22207.41947173  .00002214  00000+0  19269-3 0  9996
2 43816  97.6263 274.7059 0014505 119.4775 240.7896 14.97867829198487
SPACEBEE-5              
1 43817U 18099BM  22207.11985353  .00005111  00000+0  39665-3 0  9997
2 43817  97.6368 277.5454 0009372 125.8050 234.4047 15.01759216198571
SPACEBEE-6              
1 43818U 18099BN  22207.41518708  .00004140  00000+0  34581-3 0  9990
2 43818  97.6313 275.6490 0014841 116.9267 243.3474 14.98990456198671
SHIELDS 1               
1 43850U 18104B   22207.51572105  .00002581  00000+0  10517-3 0  9995
2 43850  85.0273  26.2890 0016044 117.4921 242.7955 15.23819240200454
STF-1                   
1 43852U 18104D   22207.45849680  .00008075  00000+0  29959-3 0  9999
2 43852  85.0296  26.5276 0014275 128.1395 232.1139 15.27319811200494
ZACUBE-2                
1 43907U 18111AH  22207.60775339  .00006994  00000+0  25483-3 0  9990
2 43907  97.1867  92.5199 0018148 304.1681 143.0245 15.28338325199270
LUME 1                  
1 43908U 18111AJ  22207.47190710  .00005551  00000+0  18680-3 0  9999
2 43908  97.1872  94.0595 0016383 297.4770  62.4806 15.31056676199363
AOBA VELOX-IV           
1 43940U 19003J   22207.05978510  .00019371  00000+0  49347-3 0  9991
2 43940  97.1234 241.8079 0016433  12.2797 347.8847 15.39451965196065
MOVE-IIB                
1 44398U 19038N   22207.55555243  .00012234  00000+0  57779-3 0  9995
2 44398  97.6344 177.2746 0020269 357.6428   2.4697 15.19395764168970
SONATE                  
1 44400U 19038Q   22207.56322273  .00004772  00000+0  25791-3 0  9992
2 44400  97.6436 176.2508 0023359   2.4453 357.6884 15.14957116168857
LUCKY-7                 
1 44406U 19038W   22207.47142547  .00003848  00000+0  20320-3 0  9998
2 44406  97.6398 176.7096 0022445   0.9392 359.1878 15.15929590168875
BEESAT 9                
1 44412U 19038AC  22207.43165637  .00005843  00000+0  29434-3 0  9998
2 44412  97.6369 177.0183 0020060   5.4216 354.7230 15.17402991168604
JAISAT-1                
1 44419U 19038F   22207.40519889  .00006553  00000+0  32539-3 0  9993
2 44419  97.6370 177.8593 0018961   2.8797 357.2542 15.17876875168967
DUCHIFAT-3              
1 44854U 19089C   22207.44359804  .00002711  00000+0  21268-3 0  9994
2 44854  36.9663 229.1597 0007771 185.0723 318.1155 15.01306636143792
EYESAT-NANO             
1 44877U 19092E   22207.47879669  .00006172  00000+0  26357-3 0  9991
2 44877  97.4636  31.5896 0010430 213.0513 147.0073 15.23201894144301
ORBITAL FACTORY 2 (OF-2)
1 45113U 19071C   22207.46839963  .00016134  00000+0  31923-3 0  9998
2 45113  51.6358 227.1528 0009750 325.2116  34.8233 15.47203199139414
M2 PATHFINDER           
1 45727U 20037E   22207.44996313  .00001499  00000+0  15279-3 0  9998
2 45727  97.7360  22.2038 0011198 266.6470  93.3424 14.92117387112649
NETSAT-4                
1 46504U 20068U   22207.37563184  .00003451  00000+0  25648-3 0  9995
2 46504  97.7253 147.0967 0011840 190.5662 169.5312 15.03624502 99891
NETSAT-3                
1 46505U 20068V   22207.39207629  .00002238  00000+0  16831-3 0  9993
2 46505  97.7261 147.0320 0009961 198.7164 161.3694 15.03561798 99904
NETSAT-1                
1 46506U 20068W   22207.34328179  .00002183  00000+0  16453-3 0  9992
2 46506  97.7263 146.9091 0008032 202.6598 157.4273 15.03515315 99895
NETSAT-2                
1 46507U 20068X   22207.41987179  .00002275  00000+0  17134-3 0  9991
2 46507  97.7264 146.9768 0007374 208.2920 151.7903 15.03498595 99850
SAI-1 NANOCONNECT-2     
1 47701U 21015C   22206.95019327  .00006659  00000+0  24580-3 0  9993
2 47701  97.4226 283.7074 0009816 324.0805  35.9774 15.28055005 78098
BEESAT-6                
1 47957U 21022AB  22206.99752611  .00007736  00000+0  48990-3 0  9996
2 47957  97.5262 105.8519 0020627  20.2778  37.7390 15.09067040 73615
SMOG-1                  
1 47964U 21022AJ  22207.20050966  .00005425  00000+0  33203-3 0  9997
2 47964  97.5271 107.1706 0018586   8.8021 351.3531 15.10486266 72731
MMSATS-1                
1 47976U 98067SJ  22207.30348697  .00022789  00000+0  27437-3 0  9999
2 47976  51.6391 129.6066 0002146 114.6423  28.2281 15.60715530 76328
BCCSAT-1                
1 48041U 21022AK  22207.20769693  .00004943  00000+0  31069-3 0  9990
2 48041  97.5274 106.7526 0015183   8.0444 352.1025 15.09604011 72686
BEESAT-5                
1 48083U 21022AM  22207.20406190  .00007889  00000+0  49720-3 0  9991
2 48083  97.5234 106.0591 0020218  19.4166 140.1087 15.09240087 72777
BEESAT-7                
1 48084U 21022AN  22207.53412215  .00006994  00000+0  44247-3 0  9998
2 48084  97.5263 106.3887 0020526  17.3700 106.1082 15.09137274 72415
BEESAT-8                
1 48085U 21022AP  22207.53631081  .00007313  00000+0  46353-3 0  9999
2 48085  97.5251 106.3870 0020283  17.8074 104.8338 15.09058996 72977
RAMSAT                  
1 48850U 98067SL  22207.34593692  .00115782  00000+0  70407-3 0  9993
2 48850  51.6357 118.1403 0002521 157.1960 202.9152 15.76615181 63451
BD-28                   
1 48867U 98067SN  22207.01703499  .00124844  00000+0  55499-3 0  9996
2 48867  51.6267 115.8325 0002054 152.5315 207.5797 15.83449192 62203
BINAR-1                 
1 49272U 98067SR  22207.03751365  .00090105  00000+0  52910-3 0  9991
2 49272  51.6313 123.5376 0004711 106.8204 253.3313 15.77499509 45742
MAYA-3                  
1 49273U 98067SS  22206.73751558  .00667615  22777-3  95192-3 0  9996
2 49273  51.6231 116.1335 0004861 196.3187 163.7669 16.04930426 45810
MAYA-4                  
1 49274U 98067ST  22207.11352108  .00486708  11534-3  87273-3 0  9990
2 49274  51.6259 114.9217 0004185 185.4671 174.6294 16.01099459 45861
CUAVA-1                 
1 49275U 98067SU  22207.82806650  .00219764  00000+0  78543-3 0  9993
2 49275  51.6305 115.0229 0004129 141.1753 327.9920 15.87682931 45873
